[{"OBJECT_NAME":"STARLINK-4732","OBJECT_ID":"2022-114BE","EPOCH":"2026-03-09T19:47:27.233664","MEAN_MOTION":15.08837432,"ECCENTRICITY":0.00013801,"INCLINATION":53.2154,"RA_OF_ASC_NODE":263.4506,"ARG_OF_PERICENTER":89.7932,"MEAN_ANOMALY":270.3218,"EPHEMERIS_TYPE":0,"CLASSIFICATION_TYPE":"U","NORAD_CAT_ID":53870,"ELEMENT_SET_NO":999,"REV_AT_EPOCH":19341,"BSTAR":-2.1107874e-5,"MEAN_MOTION_DOT":-6.24e-6,"MEAN_MOTION_DDOT":0},{"OBJECT_NAME":"PRSC-S1","OBJECT_ID":"2025-164A","EPOCH":"2026-03-09T14:34:55.095168","MEAN_MOTION":15.0891951,"ECCENTRICITY":0.0004466,"INCLINATION":41.129,"RA_OF_ASC_NODE":129.3637,"ARG_OF_PERICENTER":348.3012,"MEAN_ANOMALY":11.7698,"EPHEMERIS_TYPE":0,"CLASSIFICATION_TYPE":"U","NORAD_CAT_ID":65055,"ELEMENT_SET_NO":999,"REV_AT_EPOCH":3340,"BSTAR":0.00046631,"MEAN_MOTION_DOT":7.316e-5,"MEAN_MOTION_DDOT":0}]
