STARLINK-4732           
1 53870U 22114BE  26068.82462075 -.00000624  00000+0 -21108-4 0  9998
2 53870  53.2154 263.4506 0001380  89.7932 270.3218 15.08837432193413
PRSC-S1                 
1 65055U 25164A   26068.60758212  .00007316  00000+0  46631-3 0  9991
2 65055  41.1290 129.3637 0004466 348.3012  11.7698 15.08919510 33403
